[{"OBJECT_NAME":"STARLINK-33993","OBJECT_ID":"2025-098Z","EPOCH":"2026-03-09T19:19:59.406816","MEAN_MOTION":14.98390673,"ECCENTRICITY":0.00023778,"INCLINATION":70.0003,"RA_OF_ASC_NODE":273.9954,"ARG_OF_PERICENTER":281.9857,"MEAN_ANOMALY":78.1036,"EPHEMERIS_TYPE":0,"CLASSIFICATION_TYPE":"U","NORAD_CAT_ID":63949,"ELEMENT_SET_NO":999,"REV_AT_EPOCH":4657,"BSTAR":-0.0074293417,"MEAN_MOTION_DOT":-0.00087772,"MEAN_MOTION_DDOT":0},{"OBJECT_NAME":"CZ-6A DEB","OBJECT_ID":"2022-151BY","EPOCH":"2026-03-09T19:54:31.094784","MEAN_MOTION":14.84736827,"ECCENTRICITY":0.00926882,"INCLINATION":98.6307,"RA_OF_ASC_NODE":160.4734,"ARG_OF_PERICENTER":65.7458,"MEAN_ANOMALY":295.3404,"EPHEMERIS_TYPE":0,"CLASSIFICATION_TYPE":"U","NORAD_CAT_ID":54329,"ELEMENT_SET_NO":999,"REV_AT_EPOCH":17696,"BSTAR":0.0019746466,"MEAN_MOTION_DOT":0.00018045,"MEAN_MOTION_DDOT":0}]
